{"type": "FeatureCollection", "features": [ {"type": "Feature", "properties": {"norad_id": 66829, "name": "STARLINK-36084", "group": "last-30-days", "lat": 50.61475967122358, "lon": -40.45882943991864, "alt_km": 405.8237674976872, "timestamp": "2025-12-24T14:43:27.721287+00:00", "meta": {"OBJECT_NAME": "STARLINK-36084", "OBJECT_ID": "2025-280J", "EPOCH": "2025-12-24T06:27:28.919808", "MEAN_MOTION": 15.52550052, "ECCENTRICITY": 0.00033981, "INCLINATION": 70.0005, "RA_OF_ASC_NODE": 166.8208, "ARG_OF_PERICENTER": 270.7103, "MEAN_ANOMALY": 89.3694, "EPHEMERIS_TYPE": 0, "CLASSIFICATION_TYPE": "U", "NORAD_CAT_ID": 66829, "ELEMENT_SET_NO": 999, "REV_AT_EPOCH": 472, "BSTAR": 0.0010751032, "MEAN_MOTION_DOT": 0.00066605, "MEAN_MOTION_DDOT": 0}, "tle": {"line1": "1 66829U 25280J   25358.26908472  .00066605  00000+0  10751-2 0  9997", "line2": "2 66829  70.0005 166.8208 0003398 270.7103  89.3694 15.52550052  4721"}}, "geometry": {"type": "Point", "coordinates": [-40.45882943991864, 50.61475967122358]}}, {"type": "Feature", "properties": {"norad_id": 66830, "name": "STARLINK-35881", "group": "last-30-days", "lat": 47.30448283648005, "lon": -37.37806026298712, "alt_km": 406.07438514972546, "timestamp": "2025-12-24T14:43:27.721299+00:00", "meta": {"OBJECT_NAME": "STARLINK-35881", "OBJECT_ID": "2025-280K", "EPOCH": "2025-12-24T06:26:29.670144", "MEAN_MOTION": 15.5256786, "ECCENTRICITY": 0.0003434, "INCLINATION": 70.0006, "RA_OF_ASC_NODE": 166.8181, "ARG_OF_PERICENTER": 271.0875, "MEAN_ANOMALY": 88.9918, "EPHEMERIS_TYPE": 0, "CLASSIFICATION_TYPE": "U", "NORAD_CAT_ID": 66830, "ELEMENT_SET_NO": 999, "REV_AT_EPOCH": 472, "BSTAR": 0.0019328837, "MEAN_MOTION_DOT": 0.00120782, "MEAN_MOTION_DDOT": 0}, "tle": {"line1": "1 66830U 25280K   25358.26839896  .00120782  00000+0  19329-2 0  9999", "line2": "2 66830  70.0006 166.8181 0003434 271.0875  88.9918 15.52567860  4724"}}, "geometry": {"type": "Point", "coordinates": [-37.37806026298712, 47.30448283648005]}}, {"type": "Feature", "properties": {"norad_id": 66831, "name": "STARLINK-35788", "group": "last-30-days", "lat": 45.644298853422754, "lon": -35.99854049935545, "alt_km": 406.46853466722223, "timestamp": "2025-12-24T14:43:27.721309+00:00", "meta": {"OBJECT_NAME": "STARLINK-35788", "OBJECT_ID": "2025-280L", "EPOCH": "2025-12-24T06:26:00.145536", "MEAN_MOTION": 15.5256342, "ECCENTRICITY": 0.00032192, "INCLINATION": 70.0003, "RA_OF_ASC_NODE": 166.8179, "ARG_OF_PERICENTER": 284.3113, "MEAN_ANOMALY": 75.7717, "EPHEMERIS_TYPE": 0, "CLASSIFICATION_TYPE": "U", "NORAD_CAT_ID": 66831, "ELEMENT_SET_NO": 999, "REV_AT_EPOCH": 472, "BSTAR": 0.0017361388, "MEAN_MOTION_DOT": 0.00108279, "MEAN_MOTION_DDOT": 0}, "tle": {"line1": "1 66831U 25280L   25358.26805724  .00108279  00000+0  17361-2 0  9994", "line2": "2 66831  70.0003 166.8179 0003219 284.3113  75.7717 15.52563420  4721"}}, "geometry": {"type": "Point", "coordinates": [-35.99854049935545, 45.644298853422754]}}, {"type": "Feature", "properties": {"norad_id": 66832, "name": "STARLINK-35768", "group": "last-30-days", "lat": 43.98173345426756, "lon": -34.71053448002791, "alt_km": 406.60763927014796, "timestamp": "2025-12-24T14:43:27.721321+00:00", "meta": {"OBJECT_NAME": "STARLINK-35768", "OBJECT_ID": "2025-280M", "EPOCH": "2025-12-24T06:25:30.395424", "MEAN_MOTION": 15.52555048, "ECCENTRICITY": 0.00035282, "INCLINATION": 70.0005, "RA_OF_ASC_NODE": 166.8154, "ARG_OF_PERICENTER": 271.7402, "MEAN_ANOMALY": 88.3381, "EPHEMERIS_TYPE": 0, "CLASSIFICATION_TYPE": "U", "NORAD_CAT_ID": 66832, "ELEMENT_SET_NO": 999, "REV_AT_EPOCH": 472, "BSTAR": 0.0016011563, "MEAN_MOTION_DOT": 0.00099713, "MEAN_MOTION_DDOT": 0}, "tle": {"line1": "1 66832U 25280M   25358.26771291  .00099713  00000+0  16012-2 0  9990", "line2": "2 66832  70.0005 166.8154 0003528 271.7402  88.3381 15.52555048  4725"}}, "geometry": {"type": "Point", "coordinates": [-34.71053448002791, 43.98173345426756]}}, {"type": "Feature", "properties": {"norad_id": 66833, "name": "STARLINK-35858", "group": "last-30-days", "lat": 42.29058315569964, "lon": -33.481377562630335, "alt_km": 406.8018384991783, "timestamp": "2025-12-24T14:43:27.721331+00:00", "meta": {"OBJECT_NAME": "STARLINK-35858", "OBJECT_ID": "2025-280N", "EPOCH": "2025-12-24T06:25:00.756768", "MEAN_MOTION": 15.52553729, "ECCENTRICITY": 0.00034286, "INCLINATION": 70.0004, "RA_OF_ASC_NODE": 166.8146, "ARG_OF_PERICENTER": 272.3735, "MEAN_ANOMALY": 87.7059, "EPHEMERIS_TYPE": 0, "CLASSIFICATION_TYPE": "U", "NORAD_CAT_ID": 66833, "ELEMENT_SET_NO": 999, "REV_AT_EPOCH": 472, "BSTAR": 0.0014342956, "MEAN_MOTION_DOT": 0.0008918, "MEAN_MOTION_DDOT": 0}, "tle": {"line1": "1 66833U 25280N   25358.26736987  .00089180  00000+0  14343-2 0  9996", "line2": "2 66833  70.0004 166.8146 0003428 272.3735  87.7059 15.52553729  4720"}}, "geometry": {"type": "Point", "coordinates": [-33.481377562630335, 42.29058315569964]}}, {"type": "Feature", "properties": {"norad_id": 66834, "name": "STARLINK-35840", "group": "last-30-days", "lat": 40.60430741348175, "lon": -32.32912202070284, "alt_km": 407.0644420442586, "timestamp": "2025-12-24T14:43:27.721341+00:00", "meta": {"OBJECT_NAME": "STARLINK-35840", "OBJECT_ID": "2025-280P", "EPOCH": "2025-12-24T06:24:31.162176", "MEAN_MOTION": 15.52546491, "ECCENTRICITY": 0.00033934, "INCLINATION": 70.0006, "RA_OF_ASC_NODE": 166.8127, "ARG_OF_PERICENTER": 272.3135, "MEAN_ANOMALY": 87.7663, "EPHEMERIS_TYPE": 0, "CLASSIFICATION_TYPE": "U", "NORAD_CAT_ID": 66834, "ELEMENT_SET_NO": 999, "REV_AT_EPOCH": 472, "BSTAR": 0.00098603226, "MEAN_MOTION_DOT": 0.00061022, "MEAN_MOTION_DDOT": 0}, "tle": {"line1": "1 66834U 25280P   25358.26702734  .00061022  00000+0  98603-3 0  9997", "line2": "2 66834  70.0006 166.8127 0003393 272.3135  87.7663 15.52546491  4726"}}, "geometry": {"type": "Point", "coordinates": [-32.32912202070284, 40.60430741348175]}}, {"type": "Feature", "properties": {"norad_id": 66835, "name": "STARLINK-35890", "group": "last-30-days", "lat": 38.81022686225837, "lon": -31.172470846752944, "alt_km": 407.10073110798294, "timestamp": "2025-12-24T14:43:27.721353+00:00", "meta": {"OBJECT_NAME": "STARLINK-35890", "OBJECT_ID": "2025-280Q", "EPOCH": "2025-12-24T04:51:14.563296", "MEAN_MOTION": 15.52581406, "ECCENTRICITY": 0.00033457, "INCLINATION": 70.0005, "RA_OF_ASC_NODE": 166.9882, "ARG_OF_PERICENTER": 271.7807, "MEAN_ANOMALY": 88.2997, "EPHEMERIS_TYPE": 0, "CLASSIFICATION_TYPE": "U", "NORAD_CAT_ID": 66835, "ELEMENT_SET_NO": 999, "REV_AT_EPOCH": 471, "BSTAR": 0.0011308848, "MEAN_MOTION_DOT": 0.0007018, "MEAN_MOTION_DDOT": 0}, "tle": {"line1": "1 66835U 25280Q   25358.20225189  .00070180  00000+0  11309-2 0  9998", "line2": "2 66835  70.0005 166.9882 0003345 271.7807  88.2997 15.52581406  4711"}}, "geometry": {"type": "Point", "coordinates": [-31.172470846752944, 38.81022686225837]}}, {"type": "Feature", "properties": {"norad_id": 66836, "name": "STARLINK-35838", "group": "last-30-days", "lat": 37.09573231854693, "lon": -30.12754695380066, "alt_km": 407.30912963420724, "timestamp": "2025-12-24T14:43:27.721363+00:00", "meta": {"OBJECT_NAME": "STARLINK-35838", "OBJECT_ID": "2025-280R", "EPOCH": "2025-12-24T04:50:45.219264", "MEAN_MOTION": 15.52564271, "ECCENTRICITY": 0.00033698, "INCLINATION": 70.0007, "RA_OF_ASC_NODE": 166.9861, "ARG_OF_PERICENTER": 273.2556, "MEAN_ANOMALY": 86.8245, "EPHEMERIS_TYPE": 0, "CLASSIFICATION_TYPE": "U", "NORAD_CAT_ID": 66836, "ELEMENT_SET_NO": 999, "REV_AT_EPOCH": 471, "BSTAR": 0.0019002602, "MEAN_MOTION_DOT": 0.00118693, "MEAN_MOTION_DDOT": 0}, "tle": {"line1": "1 66836U 25280R   25358.20191226  .00118693  00000+0  19003-2 0  9994", "line2": "2 66836  70.0007 166.9861 0003369 273.2556  86.8245 15.52564271  4716"}}, "geometry": {"type": "Point", "coordinates": [-30.12754695380066, 37.09573231854693]}}, {"type": "Feature", "properties": {"norad_id": 66837, "name": "STARLINK-35729", "group": "last-30-days", "lat": 35.40782891437388, "lon": -29.148454613978416, "alt_km": 407.61711150346673, "timestamp": "2025-12-24T14:43:27.721373+00:00", "meta": {"OBJECT_NAME": "STARLINK-35729", "OBJECT_ID": "2025-280S", "EPOCH": "2025-12-24T04:50:15.530496", "MEAN_MOTION": 15.52543328, "ECCENTRICITY": 0.00033291, "INCLINATION": 70.0008, "RA_OF_ASC_NODE": 166.9848, "ARG_OF_PERICENTER": 271.5971, "MEAN_ANOMALY": 88.4835, "EPHEMERIS_TYPE": 0, "CLASSIFICATION_TYPE": "U", "NORAD_CAT_ID": 66837, "ELEMENT_SET_NO": 999, "REV_AT_EPOCH": 471, "BSTAR": 0.001190182, "MEAN_MOTION_DOT": 0.00073801, "MEAN_MOTION_DDOT": 0}, "tle": {"line1": "1 66837U 25280S   25358.20156864  .00073801  00000+0  11902-2 0  9995", "line2": "2 66837  70.0008 166.9848 0003329 271.5971  88.4835 15.52543328  4714"}}, "geometry": {"type": "Point", "coordinates": [-29.148454613978416, 35.40782891437388]}}, {"type": "Feature", "properties": {"norad_id": 66838, "name": "STARLINK-35886", "group": "last-30-days", "lat": 31.886633391845358, "lon": -27.243349490632685, "alt_km": 407.88547640292836, "timestamp": "2025-12-24T14:43:27.721383+00:00", "meta": {"OBJECT_NAME": "STARLINK-35886", "OBJECT_ID": "2025-280T", "EPOCH": "2025-12-24T04:49:16.776768", "MEAN_MOTION": 15.52563123, "ECCENTRICITY": 0.00034087, "INCLINATION": 70.001, "RA_OF_ASC_NODE": 166.9825, "ARG_OF_PERICENTER": 270.8549, "MEAN_ANOMALY": 89.2248, "EPHEMERIS_TYPE": 0, "CLASSIFICATION_TYPE": "U", "NORAD_CAT_ID": 66838, "ELEMENT_SET_NO": 999, "REV_AT_EPOCH": 471, "BSTAR": 0.0020499492, "MEAN_MOTION_DOT": 0.00128205, "MEAN_MOTION_DDOT": 0}, "tle": {"line1": "1 66838U 25280T   25358.20088862  .00128205  00000+0  20499-2 0  9998", "line2": "2 66838  70.0010 166.9825 0003408 270.8549  89.2248 15.52563123  4716"}}, "geometry": {"type": "Point", "coordinates": [-27.243349490632685, 31.886633391845358]}}]}